[{"OBJECT_NAME":"BRO-11","OBJECT_ID":"2023-174J","EPOCH":"2026-03-09T23:01:09.890400","MEAN_MOTION":15.26267731,"ECCENTRICITY":0.00104518,"INCLINATION":97.3961,"RA_OF_ASC_NODE":146.7679,"ARG_OF_PERICENTER":189.9892,"MEAN_ANOMALY":170.1141,"EPHEMERIS_TYPE":0,"CLASSIFICATION_TYPE":"U","NORAD_CAT_ID":58264,"ELEMENT_SET_NO":999,"REV_AT_EPOCH":12961,"BSTAR":0.00032296323,"MEAN_MOTION_DOT":8.313e-5,"MEAN_MOTION_DDOT":0},{"OBJECT_NAME":"STARLINK-35620","OBJECT_ID":"2025-262U","EPOCH":"2026-03-09T00:08:35.179872","MEAN_MOTION":15.27603895,"ECCENTRICITY":0.00019058,"INCLINATION":43.0018,"RA_OF_ASC_NODE":299.872,"ARG_OF_PERICENTER":260.8885,"MEAN_ANOMALY":99.1751,"EPHEMERIS_TYPE":0,"CLASSIFICATION_TYPE":"U","NORAD_CAT_ID":66474,"ELEMENT_SET_NO":999,"REV_AT_EPOCH":1880,"BSTAR":0.0011812188,"MEAN_MOTION_DOT":0.0003241,"MEAN_MOTION_DDOT":0}]
